ONEWEB-0628             
1 55169U 23004AF  25136.74207631  .00000065  00000+0  14496-3 0  9999
2 55169  87.8885  69.5052 0002576  69.4314 290.7091 13.12442111116035
ONEWEB-0629             
1 55170U 23004AG  25136.87855504  .00000014  00000+0  26583-5 0  9999
2 55170  87.9072  84.7838 0002064  68.1287 292.0064 13.17651837115399
ONEWEB-0631             
1 55171U 23004AH  25136.79807933  .00000054  00000+0  10338-3 0  9997
2 55171  87.9160  54.2095 0002350  90.3405 269.7996 13.18687161117434
ONEWEB-0709             
1 55172U 23004AJ  25137.14780281 -.00000463  00000+0 -13411-2 0  9994
2 55172  87.8818 100.0364 0002229 109.2911 250.8459 13.11414910113973
ONEWEB-0710             
1 55173U 23004AK  25136.89290776 -.00000009  00000+0 -57575-4 0  9998
2 55173  87.9051  84.7917 0002159  81.2187 278.9189 13.17646930115396
ONEWEB-0711             
1 55174U 23004AL  25137.19529193  .00000534  00000+0  14719-2 0  9993
2 55174  87.8817  99.9951 0002757  77.1274 283.0161 13.11416692113947
ONEWEB-0713             
1 55175U 23004AM  25136.90874680 -.00000223  00000+0 -66501-3 0  9990
2 55175  87.8816 100.0596 0002291  81.8327 278.3061 13.11414176113884
ONEWEB-0715             
1 55176U 23004AN  25136.90365352  .00000033  00000+0  58024-4 0  9991
2 55176  87.8815 100.0610 0002219  91.7116 268.4266 13.11415866113926
